{"type": "FeatureCollection", "features": [ {"type": "Feature", "properties": {"norad_id": 66569, "name": "STARLINK-35835", "group": "last-30-days", "lat": 42.30302796157474, "lon": 173.8913782332071, "alt_km": 408.5573102121125, "timestamp": "2025-12-16T23:36:34.922770+00:00", "meta": {"OBJECT_NAME": "STARLINK-35835", "OBJECT_ID": "2025-268N", "EPOCH": "2025-12-15T17:53:30.134688", "MEAN_MOTION": 15.50581218, "ECCENTRICITY": 0.00013774, "INCLINATION": 43.0003, "RA_OF_ASC_NODE": 103.5637, "ARG_OF_PERICENTER": 270.128, "MEAN_ANOMALY": 89.9422, "EPHEMERIS_TYPE": 0, "CLASSIFICATION_TYPE": "U", "NORAD_CAT_ID": 66569, "ELEMENT_SET_NO": 999, "REV_AT_EPOCH": 509, "BSTAR": 0.0014471406, "MEAN_MOTION_DOT": 0.00085494, "MEAN_MOTION_DDOT": 0}, "tle": {"line1": "1 66569U 25268N   25349.74548767  .00085494  00000+0  14471-2 0  9994", "line2": "2 66569  43.0003 103.5637 0001377 270.1280  89.9422 15.50581218  5091"}}, "geometry": {"type": "Point", "coordinates": [173.8913782332071, 42.30302796157474]}}, {"type": "Feature", "properties": {"norad_id": 66570, "name": "STARLINK-35834", "group": "last-30-days", "lat": 41.90270236611115, "lon": 170.673091614369, "alt_km": 409.0089994188638, "timestamp": "2025-12-16T23:36:34.922780+00:00", "meta": {"OBJECT_NAME": "STARLINK-35834", "OBJECT_ID": "2025-268P", "EPOCH": "2025-12-16T07:48:19.114272", "MEAN_MOTION": 15.4967345, "ECCENTRICITY": 0.00028497, "INCLINATION": 43.0013, "RA_OF_ASC_NODE": 100.1731, "ARG_OF_PERICENTER": 41.6846, "MEAN_ANOMALY": 318.423, "EPHEMERIS_TYPE": 0, "CLASSIFICATION_TYPE": "U", "NORAD_CAT_ID": 66570, "ELEMENT_SET_NO": 999, "REV_AT_EPOCH": 518, "BSTAR": 0.0018064233, "MEAN_MOTION_DOT": 0.00103664, "MEAN_MOTION_DDOT": 0}, "tle": {"line1": "1 66570U 25268P   25350.32522123  .00103664  00000+0  18064-2 0  9992", "line2": "2 66570  43.0013 100.1731 0002849  41.6846 318.4230 15.49673450  5181"}}, "geometry": {"type": "Point", "coordinates": [170.673091614369, 41.90270236611115]}}, {"type": "Feature", "properties": {"norad_id": 66571, "name": "STARLINK-35836", "group": "last-30-days", "lat": 42.740969489493246, "lon": 178.98449313998393, "alt_km": 408.2776399142531, "timestamp": "2025-12-16T23:36:34.922792+00:00", "meta": {"OBJECT_NAME": "STARLINK-35836", "OBJECT_ID": "2025-268Q", "EPOCH": "2025-12-15T16:19:45.764256", "MEAN_MOTION": 15.50585283, "ECCENTRICITY": 0.00014873, "INCLINATION": 42.9954, "RA_OF_ASC_NODE": 103.9347, "ARG_OF_PERICENTER": 312.1791, "MEAN_ANOMALY": 47.8943, "EPHEMERIS_TYPE": 0, "CLASSIFICATION_TYPE": "U", "NORAD_CAT_ID": 66571, "ELEMENT_SET_NO": 999, "REV_AT_EPOCH": 508, "BSTAR": 0.0011259195, "MEAN_MOTION_DOT": 0.00066287, "MEAN_MOTION_DDOT": 0}, "tle": {"line1": "1 66571U 25268Q   25349.68039079  .00066287  00000+0  11259-2 0  9991", "line2": "2 66571  42.9954 103.9347 0001487 312.1791  47.8943 15.50585283  5081"}}, "geometry": {"type": "Point", "coordinates": [178.98449313998393, 42.740969489493246]}}, {"type": "Feature", "properties": {"norad_id": 66572, "name": "STARLINK-35870", "group": "last-30-days", "lat": 42.8793421643195, "lon": -178.47881013462157, "alt_km": 408.7580456840569, "timestamp": "2025-12-16T23:36:34.922803+00:00", "meta": {"OBJECT_NAME": "STARLINK-35870", "OBJECT_ID": "2025-268R", "EPOCH": "2025-12-15T17:52:01.245504", "MEAN_MOTION": 15.50594165, "ECCENTRICITY": 0.00014954, "INCLINATION": 42.9995, "RA_OF_ASC_NODE": 103.5566, "ARG_OF_PERICENTER": 266.7473, "MEAN_ANOMALY": 93.3216, "EPHEMERIS_TYPE": 0, "CLASSIFICATION_TYPE": "U", "NORAD_CAT_ID": 66572, "ELEMENT_SET_NO": 999, "REV_AT_EPOCH": 509, "BSTAR": 0.00095913059, "MEAN_MOTION_DOT": 0.00056363, "MEAN_MOTION_DDOT": 0}, "tle": {"line1": "1 66572U 25268R   25349.74445886  .00056363  00000+0  95913-3 0  9990", "line2": "2 66572  42.9995 103.5566 0001495 266.7473  93.3216 15.50594165  5095"}}, "geometry": {"type": "Point", "coordinates": [-178.47881013462157, 42.8793421643195]}}, {"type": "Feature", "properties": {"norad_id": 66573, "name": "STARLINK-35650", "group": "last-30-days", "lat": 42.953545992536945, "lon": -175.6831408356312, "alt_km": 407.7295717788629, "timestamp": "2025-12-16T23:36:34.922813+00:00", "meta": {"OBJECT_NAME": "STARLINK-35650", "OBJECT_ID": "2025-268S", "EPOCH": "2025-12-15T16:18:46.744416", "MEAN_MOTION": 15.50589212, "ECCENTRICITY": 0.00015462, "INCLINATION": 42.9911, "RA_OF_ASC_NODE": 103.931, "ARG_OF_PERICENTER": 343.0592, "MEAN_ANOMALY": 17.0216, "EPHEMERIS_TYPE": 0, "CLASSIFICATION_TYPE": "U", "NORAD_CAT_ID": 66573, "ELEMENT_SET_NO": 999, "REV_AT_EPOCH": 508, "BSTAR": 0.001308297, "MEAN_MOTION_DOT": 0.00077199, "MEAN_MOTION_DDOT": 0}, "tle": {"line1": "1 66573U 25268S   25349.67970769  .00077199  00000+0  13083-2 0  9993", "line2": "2 66573  42.9911 103.9310 0001546 343.0592  17.0216 15.50589212  5082"}}, "geometry": {"type": "Point", "coordinates": [-175.6831408356312, 42.953545992536945]}}, {"type": "Feature", "properties": {"norad_id": 66574, "name": "STARLINK-35812", "group": "last-30-days", "lat": 42.870666893632496, "lon": -168.7226629347866, "alt_km": 406.89161003358913, "timestamp": "2025-12-16T23:36:34.922823+00:00", "meta": {"OBJECT_NAME": "STARLINK-35812", "OBJECT_ID": "2025-268T", "EPOCH": "2025-12-14T01:39:20.923488", "MEAN_MOTION": 15.50571155, "ECCENTRICITY": 0.00014446, "INCLINATION": 42.9999, "RA_OF_ASC_NODE": 113.3431, "ARG_OF_PERICENTER": 286.1846, "MEAN_ANOMALY": 73.8855, "EPHEMERIS_TYPE": 0, "CLASSIFICATION_TYPE": "U", "NORAD_CAT_ID": 66574, "ELEMENT_SET_NO": 999, "REV_AT_EPOCH": 483, "BSTAR": 0.002097662, "MEAN_MOTION_DOT": 0.00124662, "MEAN_MOTION_DDOT": 0}, "tle": {"line1": "1 66574U 25268T   25348.06899217  .00124662  00000+0  20977-2 0  9992", "line2": "2 66574  42.9999 113.3431 0001444 286.1846  73.8855 15.50571155  4832"}}, "geometry": {"type": "Point", "coordinates": [-168.7226629347866, 42.870666893632496]}}, {"type": "Feature", "properties": {"norad_id": 66575, "name": "STARLINK-35810", "group": "last-30-days", "lat": 42.68462627375953, "lon": -165.52070793390266, "alt_km": 408.91041749505257, "timestamp": "2025-12-16T23:36:34.922836+00:00", "meta": {"OBJECT_NAME": "STARLINK-35810", "OBJECT_ID": "2025-268U", "EPOCH": "2025-12-16T07:44:51.700704", "MEAN_MOTION": 15.51470242, "ECCENTRICITY": 0.00055853, "INCLINATION": 42.9985, "RA_OF_ASC_NODE": 100.1537, "ARG_OF_PERICENTER": 256.7988, "MEAN_ANOMALY": 103.225, "EPHEMERIS_TYPE": 0, "CLASSIFICATION_TYPE": "U", "NORAD_CAT_ID": 66575, "ELEMENT_SET_NO": 999, "REV_AT_EPOCH": 518, "BSTAR": 0.0016562465, "MEAN_MOTION_DOT": 0.00101316, "MEAN_MOTION_DDOT": 0}, "tle": {"line1": "1 66575U 25268U   25350.32282061  .00101316  00000+0  16562-2 0  9994", "line2": "2 66575  42.9985 100.1537 0005585 256.7988 103.2250 15.51470242  5181"}}, "geometry": {"type": "Point", "coordinates": [-165.52070793390266, 42.68462627375953]}}, {"type": "Feature", "properties": {"norad_id": 66576, "name": "STARLINK-35814", "group": "last-30-days", "lat": 42.97720022286134, "lon": -173.23381268970397, "alt_km": 407.1381615428936, "timestamp": "2025-12-16T23:36:34.922849+00:00", "meta": {"OBJECT_NAME": "STARLINK-35814", "OBJECT_ID": "2025-268V", "EPOCH": "2025-12-16T07:45:20.642112", "MEAN_MOTION": 15.49844423, "ECCENTRICITY": 0.00043381, "INCLINATION": 42.9986, "RA_OF_ASC_NODE": 100.1557, "ARG_OF_PERICENTER": 85.4789, "MEAN_ANOMALY": 274.6567, "EPHEMERIS_TYPE": 0, "CLASSIFICATION_TYPE": "U", "NORAD_CAT_ID": 66576, "ELEMENT_SET_NO": 999, "REV_AT_EPOCH": 518, "BSTAR": 0.0012897593, "MEAN_MOTION_DOT": 0.00074098, "MEAN_MOTION_DDOT": 0}, "tle": {"line1": "1 66576U 25268V   25350.32315558  .00074098  00000+0  12898-2 0  9997", "line2": "2 66576  42.9986 100.1557 0004338  85.4789 274.6567 15.49844423  5183"}}, "geometry": {"type": "Point", "coordinates": [-173.23381268970397, 42.97720022286134]}}, {"type": "Feature", "properties": {"norad_id": 66577, "name": "STARLINK-35815", "group": "last-30-days", "lat": 42.68817417271241, "lon": -165.5647041055842, "alt_km": 407.6677374829442, "timestamp": "2025-12-16T23:36:34.922859+00:00", "meta": {"OBJECT_NAME": "STARLINK-35815", "OBJECT_ID": "2025-268W", "EPOCH": "2025-12-16T07:44:22.010208", "MEAN_MOTION": 15.50639124, "ECCENTRICITY": 8.111e-05, "INCLINATION": 42.9989, "RA_OF_ASC_NODE": 100.1505, "ARG_OF_PERICENTER": 168.9776, "MEAN_ANOMALY": 191.1102, "EPHEMERIS_TYPE": 0, "CLASSIFICATION_TYPE": "U", "NORAD_CAT_ID": 66577, "ELEMENT_SET_NO": 999, "REV_AT_EPOCH": 518, "BSTAR": 0.001263067, "MEAN_MOTION_DOT": 0.00074625, "MEAN_MOTION_DDOT": 0}, "tle": {"line1": "1 66577U 25268W   25350.32247697  .00074625  00000+0  12631-2 0  9997", "line2": "2 66577  42.9989 100.1505 0000811 168.9776 191.1102 15.50639124  5185"}}, "geometry": {"type": "Point", "coordinates": [-165.5647041055842, 42.68817417271241]}}, {"type": "Feature", "properties": {"norad_id": 66578, "name": "STARLINK-35743", "group": "last-30-days", "lat": 42.48343863256163, "lon": -163.07965472706667, "alt_km": 409.38336147139944, "timestamp": "2025-12-16T23:36:34.922870+00:00", "meta": {"OBJECT_NAME": "STARLINK-35743", "OBJECT_ID": "2025-268X", "EPOCH": "2025-12-15T16:16:19.050528", "MEAN_MOTION": 15.50569208, "ECCENTRICITY": 0.00022003, "INCLINATION": 42.9999, "RA_OF_ASC_NODE": 103.9125, "ARG_OF_PERICENTER": 266.0118, "MEAN_ANOMALY": 94.049, "EPHEMERIS_TYPE": 0, "CLASSIFICATION_TYPE": "U", "NORAD_CAT_ID": 66578, "ELEMENT_SET_NO": 999, "REV_AT_EPOCH": 508, "BSTAR": 0.0008996047, "MEAN_MOTION_DOT": 0.00052774, "MEAN_MOTION_DDOT": 0}, "tle": {"line1": "1 66578U 25268X   25349.67799827  .00052774  00000+0  89960-3 0  9992", "line2": "2 66578  42.9999 103.9125 0002200 266.0118  94.0490 15.50569208  5085"}}, "geometry": {"type": "Point", "coordinates": [-163.07965472706667, 42.48343863256163]}}]}